0 SL-12 DEB
1 29449U 89039CT  13281.59543762 -.00000025  00000-0  10000-3 0  5407
2 29449 064.0508 183.5189 5031249 007.0154 358.3961 04.21619858111540
0 SL-12 DEB
1 29449U 89039CT  13291.55684455 -.00000020  00000-0  10000-3 0  5415
2 29449 063.9901 180.5319 5042600 007.3845 358.8790 04.21677310111968
0 SL-12 DEB
1 29449U 89039CT  13294.40204905 -.00000023  00000-0  10000-3 0  5424
2 29449 063.9840 179.6704 5043350 007.3966 357.7658 04.21655384112086
